HST                     
1 20580U 90037B   24119.85786098  .00007496  00000+0  35931-3 0  9991
2 20580  28.4691 315.4633 0002024 214.1965 145.8497 15.17026836669792
